{"type": "FeatureCollection", "features": [ {"type": "Feature", "properties": {"norad_id": 44543, "name": "BEIDOU-3 M23 (C45)", "group": "beidou", "lat": -52.80065736464642, "lon": 117.7427207241697, "alt_km": 21538.203113671552, "timestamp": "2025-12-26T21:25:53.275927+00:00", "meta": {"OBJECT_NAME": "BEIDOU-3 M23 (C45)", "OBJECT_ID": "2019-061B", "EPOCH": "2025-12-26T11:37:48.857664", "MEAN_MOTION": 1.86227559, "ECCENTRICITY": 0.00059764, "INCLINATION": 54.3995, "RA_OF_ASC_NODE": 188.5205, "ARG_OF_PERICENTER": 25.6827, "MEAN_ANOMALY": 342.0898, "EPHEMERIS_TYPE": 0, "CLASSIFICATION_TYPE": "U", "NORAD_CAT_ID": 44543, "ELEMENT_SET_NO": 999, "REV_AT_EPOCH": 4258, "BSTAR": 0, "MEAN_MOTION_DOT": 1.22e-06, "MEAN_MOTION_DDOT": 0}, "tle": {"line1": "1 44543U 19061B   25360.48459326  .00000122  00000+0  00000+0 0  9997", "line2": "2 44543  54.3995 188.5205 0005976  25.6827 342.0898  1.86227559 42581"}}, "geometry": {"type": "Point", "coordinates": [117.7427207241697, -52.80065736464642]}}, {"type": "Feature", "properties": {"norad_id": 44793, "name": "BEIDOU-3 M22 (C44)", "group": "beidou", "lat": 46.602073653037266, "lon": 75.93524255080489, "alt_km": 21523.092422198046, "timestamp": "2025-12-26T21:25:53.275939+00:00", "meta": {"OBJECT_NAME": "BEIDOU-3 M22 (C44)", "OBJECT_ID": "2019-078A", "EPOCH": "2025-12-26T04:23:18.195072", "MEAN_MOTION": 1.86232141, "ECCENTRICITY": 0.00061214, "INCLINATION": 54.096, "RA_OF_ASC_NODE": 305.9151, "ARG_OF_PERICENTER": 23.7349, "MEAN_ANOMALY": 336.3032, "EPHEMERIS_TYPE": 0, "CLASSIFICATION_TYPE": "U", "NORAD_CAT_ID": 44793, "ELEMENT_SET_NO": 999, "REV_AT_EPOCH": 4142, "BSTAR": 0, "MEAN_MOTION_DOT": -5.6e-07, "MEAN_MOTION_DDOT": 0}, "tle": {"line1": "1 44793U 19078A   25360.18284948 -.00000056  00000+0  00000+0 0  9992", "line2": "2 44793  54.0960 305.9151 0006121  23.7349 336.3032  1.86232141 41424"}}, "geometry": {"type": "Point", "coordinates": [75.93524255080489, 46.602073653037266]}}, {"type": "Feature", "properties": {"norad_id": 44794, "name": "BEIDOU-3 M21 (C43)", "group": "beidou", "lat": 18.92925422847565, "lon": -39.77563819089523, "alt_km": 21514.319804536815, "timestamp": "2025-12-26T21:25:53.275950+00:00", "meta": {"OBJECT_NAME": "BEIDOU-3 M21 (C43)", "OBJECT_ID": "2019-078B", "EPOCH": "2025-12-25T05:55:32.884896", "MEAN_MOTION": 1.86227898, "ECCENTRICITY": 0.0004304, "INCLINATION": 54.0703, "RA_OF_ASC_NODE": 305.9129, "ARG_OF_PERICENTER": 12.6939, "MEAN_ANOMALY": 347.3266, "EPHEMERIS_TYPE": 0, "CLASSIFICATION_TYPE": "U", "NORAD_CAT_ID": 44794, "ELEMENT_SET_NO": 999, "REV_AT_EPOCH": 4141, "BSTAR": 0, "MEAN_MOTION_DOT": -5.3e-07, "MEAN_MOTION_DDOT": 0}, "tle": {"line1": "1 44794U 19078B   25359.24690839 -.00000053  00000+0  00000+0 0  9995", "line2": "2 44794  54.0703 305.9129 0004304  12.6939 347.3266  1.86227898 41411"}}, "geometry": {"type": "Point", "coordinates": [-39.77563819089523, 18.92925422847565]}}, {"type": "Feature", "properties": {"norad_id": 44864, "name": "BEIDOU-3 M19 (C41)", "group": "beidou", "lat": -31.84538905493266, "lon": -87.13749040552725, "alt_km": 21511.0000707928, "timestamp": "2025-12-26T21:25:53.275961+00:00", "meta": {"OBJECT_NAME": "BEIDOU-3 M19 (C41)", "OBJECT_ID": "2019-090A", "EPOCH": "2025-12-26T13:40:26.964192", "MEAN_MOTION": 1.86231444, "ECCENTRICITY": 0.001848, "INCLINATION": 56.4042, "RA_OF_ASC_NODE": 68.5033, "ARG_OF_PERICENTER": 285.3121, "MEAN_ANOMALY": 77.4787, "EPHEMERIS_TYPE": 0, "CLASSIFICATION_TYPE": "U", "NORAD_CAT_ID": 44864, "ELEMENT_SET_NO": 999, "REV_AT_EPOCH": 4102, "BSTAR": 0, "MEAN_MOTION_DOT": -3.2e-07, "MEAN_MOTION_DDOT": 0}, "tle": {"line1": "1 44864U 19090A   25360.56975653 -.00000032  00000+0  00000+0 0  9991", "line2": "2 44864  56.4042  68.5033 0018480 285.3121  77.4787  1.86231444 41027"}}, "geometry": {"type": "Point", "coordinates": [-87.13749040552725, -31.84538905493266]}}, {"type": "Feature", "properties": {"norad_id": 44865, "name": "BEIDOU-3 M20 (C42)", "group": "beidou", "lat": -40.278854697140744, "lon": 34.306877214883436, "alt_km": 21490.220482024044, "timestamp": "2025-12-26T21:25:53.275973+00:00", "meta": {"OBJECT_NAME": "BEIDOU-3 M20 (C42)", "OBJECT_ID": "2019-090B", "EPOCH": "2025-12-26T13:03:31.682016", "MEAN_MOTION": 1.86231463, "ECCENTRICITY": 0.00156123, "INCLINATION": 56.4057, "RA_OF_ASC_NODE": 68.5385, "ARG_OF_PERICENTER": 297.4356, "MEAN_ANOMALY": 137.7791, "EPHEMERIS_TYPE": 0, "CLASSIFICATION_TYPE": "U", "NORAD_CAT_ID": 44865, "ELEMENT_SET_NO": 999, "REV_AT_EPOCH": 4100, "BSTAR": 0, "MEAN_MOTION_DOT": -3.2e-07, "MEAN_MOTION_DDOT": 0}, "tle": {"line1": "1 44865U 19090B   25360.54411669 -.00000032  00000+0  00000+0 0  9992", "line2": "2 44865  56.4057  68.5385 0015612 297.4356 137.7791  1.86231463 41006"}}, "geometry": {"type": "Point", "coordinates": [34.306877214883436, -40.278854697140744]}}, {"type": "Feature", "properties": {"norad_id": 45344, "name": "BEIDOU-3 G2 (C60)", "group": "beidou", "lat": 2.532820927320354, "lon": 137.1329001458653, "alt_km": 35793.03169892696, "timestamp": "2025-12-26T21:25:53.275984+00:00", "meta": {"OBJECT_NAME": "BEIDOU-3 G2 (C60)", "OBJECT_ID": "2020-017A", "EPOCH": "2025-12-26T08:16:45.895296", "MEAN_MOTION": 1.00272016, "ECCENTRICITY": 0.00021343, "INCLINATION": 2.5207, "RA_OF_ASC_NODE": 44.1463, "ARG_OF_PERICENTER": 237.2251, "MEAN_ANOMALY": 17.9577, "EPHEMERIS_TYPE": 0, "CLASSIFICATION_TYPE": "U", "NORAD_CAT_ID": 45344, "ELEMENT_SET_NO": 999, "REV_AT_EPOCH": 2152, "BSTAR": 0, "MEAN_MOTION_DOT": -1.2e-06, "MEAN_MOTION_DDOT": 0}, "tle": {"line1": "1 45344U 20017A   25360.34497564 -.00000120  00000+0  00000+0 0  9990", "line2": "2 45344   2.5207  44.1463 0002134 237.2251  17.9577  1.00272016 21527"}}, "geometry": {"type": "Point", "coordinates": [137.1329001458653, 2.532820927320354]}}, {"type": "Feature", "properties": {"norad_id": 45807, "name": "BEIDOU-3 G3 (C61)", "group": "beidou", "lat": 1.9944795018833643, "lon": 167.6403799739568, "alt_km": 35811.80103172464, "timestamp": "2025-12-26T21:25:53.275996+00:00", "meta": {"OBJECT_NAME": "BEIDOU-3 G3 (C61)", "OBJECT_ID": "2020-040A", "EPOCH": "2025-12-26T15:16:11.754624", "MEAN_MOTION": 1.00266662, "ECCENTRICITY": 0.00065884, "INCLINATION": 2.0227, "RA_OF_ASC_NODE": 66.6979, "ARG_OF_PERICENTER": 308.5345, "MEAN_ANOMALY": 59.7005, "EPHEMERIS_TYPE": 0, "CLASSIFICATION_TYPE": "U", "NORAD_CAT_ID": 45807, "ELEMENT_SET_NO": 999, "REV_AT_EPOCH": 2034, "BSTAR": 0, "MEAN_MOTION_DOT": -3.32e-06, "MEAN_MOTION_DDOT": 0}, "tle": {"line1": "1 45807U 20040A   25360.63624716 -.00000332  00000+0  00000+0 0  9998", "line2": "2 45807   2.0227  66.6979 0006588 308.5345  59.7005  1.00266662 20341"}}, "geometry": {"type": "Point", "coordinates": [167.6403799739568, 1.9944795018833643]}}, {"type": "Feature", "properties": {"norad_id": 56564, "name": "BEIDOU-3 G4 (C62)", "group": "beidou", "lat": -0.7928217957487851, "lon": -142.83611353464204, "alt_km": 35778.85666541764, "timestamp": "2025-12-26T21:25:53.276008+00:00", "meta": {"OBJECT_NAME": "BEIDOU-3 G4 (C62)", "OBJECT_ID": "2023-066A", "EPOCH": "2025-12-26T15:11:02.876352", "MEAN_MOTION": 1.00270623, "ECCENTRICITY": 0.00025142, "INCLINATION": 0.7862, "RA_OF_ASC_NODE": 303.1351, "ARG_OF_PERICENTER": 230.5978, "MEAN_ANOMALY": 309.4542, "EPHEMERIS_TYPE": 0, "CLASSIFICATION_TYPE": "U", "NORAD_CAT_ID": 56564, "ELEMENT_SET_NO": 999, "REV_AT_EPOCH": 966, "BSTAR": 0, "MEAN_MOTION_DOT": -8.9e-07, "MEAN_MOTION_DDOT": 0}, "tle": {"line1": "1 56564U 23066A   25360.63267218 -.00000089  00000+0  00000+0 0  9990", "line2": "2 56564   0.7862 303.1351 0002514 230.5978 309.4542  1.00270623  9662"}}, "geometry": {"type": "Point", "coordinates": [-142.83611353464204, -0.7928217957487851]}}, {"type": "Feature", "properties": {"norad_id": 58654, "name": "BEIDOU-3 M28 (C50)", "group": "beidou", "lat": -23.42086818010237, "lon": 50.89124869602366, "alt_km": 21526.551817129606, "timestamp": "2025-12-26T21:25:53.276020+00:00", "meta": {"OBJECT_NAME": "BEIDOU-3 M28 (C50)", "OBJECT_ID": "2023-207A", "EPOCH": "2025-12-26T09:34:30.666720", "MEAN_MOTION": 1.86229622, "ECCENTRICITY": 0.0002968, "INCLINATION": 55.596, "RA_OF_ASC_NODE": 68.1388, "ARG_OF_PERICENTER": 276.5456, "MEAN_ANOMALY": 83.472, "EPHEMERIS_TYPE": 0, "CLASSIFICATION_TYPE": "U", "NORAD_CAT_ID": 58654, "ELEMENT_SET_NO": 999, "REV_AT_EPOCH": 1362, "BSTAR": 0, "MEAN_MOTION_DOT": -3.3e-07, "MEAN_MOTION_DDOT": 0}, "tle": {"line1": "1 58654U 23207A   25360.39896605 -.00000033  00000+0  00000+0 0  9999", "line2": "2 58654  55.5960  68.1388 0002968 276.5456  83.4720  1.86229622 13628"}}, "geometry": {"type": "Point", "coordinates": [50.89124869602366, -23.42086818010237]}}, {"type": "Feature", "properties": {"norad_id": 58655, "name": "BEIDOU-3 M26 (C48)", "group": "beidou", "lat": 52.140197198451006, "lon": -173.568397208607, "alt_km": 21532.7220675937, "timestamp": "2025-12-26T21:25:53.276031+00:00", "meta": {"OBJECT_NAME": "BEIDOU-3 M26 (C48)", "OBJECT_ID": "2023-207B", "EPOCH": "2025-12-26T04:42:57.397824", "MEAN_MOTION": 1.86231148, "ECCENTRICITY": 0.00042709, "INCLINATION": 55.5979, "RA_OF_ASC_NODE": 68.1319, "ARG_OF_PERICENTER": 261.8376, "MEAN_ANOMALY": 98.1658, "EPHEMERIS_TYPE": 0, "CLASSIFICATION_TYPE": "U", "NORAD_CAT_ID": 58655, "ELEMENT_SET_NO": 999, "REV_AT_EPOCH": 1360, "BSTAR": 0, "MEAN_MOTION_DOT": -3.2e-07, "MEAN_MOTION_DDOT": 0}, "tle": {"line1": "1 58655U 23207B   25360.19649766 -.00000032  00000+0  00000+0 0  9991", "line2": "2 58655  55.5979  68.1319 0004270 261.8376  98.1658  1.86231148 13606"}}, "geometry": {"type": "Point", "coordinates": [-173.568397208607, 52.140197198451006]}}]}